MEAN_MOTION;ECCENTRICITY;INCLINATION;RA_OF_ASC_NODE;ARG_OF_PERICENTER;MEAN_ANOMALY;BSTAR;MEAN_MOTION_DOT;MEAN_MOTION_DDOT;TYPE
14.34333888;0.0002164;86.4005;21.1812;89.3154;270.8289;2.2265E-5;8.2E-7;0;Iridium
14.34333977;0.0002163;86.4006;20.9481;89.2876;270.8567;2.2502E-5;8.3E-7;0;Iridium
14.34333977;0.0002163;86.4006;20.9481;89.2876;270.8567;2.2502E-5;8.3E-7;0;Iridium
14.34334008;0.0002168;86.4006;20.7441;89.3782;270.7663;2.0164E-5;7.6E-7;0;Iridium
14.3433412;0.0002174;86.4007;20.5402;89.3724;270.772;2.1802E-5;8.1E-7;0;Iridium
14.34334157;0.0002179;86.4007;20.3362;89.2049;270.9397;1.9442E-5;7.4E-7;0;Iridium
14.3433419;0.0002178;86.4008;20.1614;89.1212;271.0234;1.8436E-5;7.2E-7;0;Iridium
14.34334329;0.000218;86.4009;19.7243;89.2633;270.8812;1.8494E-5;7.2E-7;0;Iridium
14.34334329;0.000218;86.4009;19.7243;89.2633;270.8812;1.8494E-5;7.2E-7;0;Iridium
14.3433453;0.0002177;86.401;19.3455;89.2996;270.8449;2.3159E-5;8.5E-7;0;Iridium
14.34334575;0.0002179;86.4011;19.1416;89.3092;270.8353;2.2503E-5;8.3E-7;0;Iridium
14.34334656;0.0002179;86.4012;18.9085;89.3279;270.8167;2.4088E-5;8.7E-7;0;Iridium
14.34334656;0.0002179;86.4012;18.9085;89.3279;270.8167;2.4088E-5;8.7E-7;0;Iridium
14.34334693;0.0002189;86.4012;18.6754;89.4645;270.6802;2.3149E-5;8.5E-7;0;Iridium
14.34334754;0.0002188;86.4013;18.5006;89.3994;270.7453;2.5057E-5;9.0E-7;0;Iridium
14.3433481;0.0002195;86.4013;18.2675;89.4031;270.7416;2.4918E-5;9.0E-7;0;Iridium
14.34334895;0.0002197;86.4014;17.8305;89.2826;270.8622;2.4086E-5;8.7E-7;0;Iridium
14.3433496;0.0002215;86.4014;17.5681;89.0574;271.0875;2.4579E-5;8.9E-7;0;Iridium
14.3433496;0.0002215;86.4014;17.5681;89.0574;271.0875;2.4579E-5;8.9E-7;0;Iridium
14.34335015;0.0002216;86.4014;17.4225;89.0144;271.1306;2.4655E-5;8.9E-7;0;Iridium
14.34335124;0.0002225;86.4015;17.1603;88.6192;271.5258;2.6563E-5;9.4E-7;0;Iridium
14.34335193;0.0002224;86.4015;16.9855;88.6369;271.5081;2.704E-5;9.6E-7;0;Iridium
14.34335282;0.0002228;86.4015;16.7524;88.6924;271.4527;2.7232E-5;9.6E-7;0;Iridium
14.34335364;0.0002227;86.4015;16.5776;88.7883;271.3568;2.8517E-5;1.0E-6;0;Iridium
14.34335418;0.0002226;86.4015;16.3445;88.6428;271.5023;2.6108E-5;9.3E-7;0;Iridium
14.34335442;0.0002227;86.4016;16.1697;88.7447;271.4004;2.3434E-5;8.6E-7;0;Iridium
14.34335464;0.000223;86.4016;15.9075;88.5991;271.546;1.867E-5;7.2E-7;0;Iridium
14.34335474;0.000223;86.4016;15.8784;88.5931;271.5521;1.894E-5;7.3E-7;0;Iridium
14.34335491;0.000223;86.4016;15.7619;88.5807;271.5644;1.6703E-5;6.7E-7;0;Iridium
14.34335576;0.0002234;86.4016;15.4997;88.4352;271.7099;1.8431E-5;7.2E-7;0;Iridium
14.34335569;0.0002235;86.4016;15.4706;88.4223;271.7229;1.7265E-5;6.8E-7;0;Iridium
14.34335606;0.0002233;86.4017;15.3249;88.4019;271.7432;1.5959E-5;6.5E-7;0;Iridium
14.3433572;0.0002236;86.4017;15.0627;88.2626;271.8826;1.8816E-5;7.3E-7;0;Iridium
14.3433572;0.0002236;86.4017;15.0627;88.2626;271.8826;1.8816E-5;7.3E-7;0;Iridium
14.34335761;0.0002235;86.4017;14.9171;88.2744;271.8708;1.7764E-5;7.0E-7;0;Iridium
14.34335827;0.0002237;86.4017;14.6549;88.0685;272.0767;1.774E-5;7.0E-7;0;Iridium
14.34335869;0.0002237;86.4018;14.5093;88.041;272.1042;1.7106E-5;6.8E-7;0;Iridium
14.34335962;0.0002237;86.4018;14.3345;88.0279;272.1173;1.9744E-5;7.5E-7;0;Iridium
14.34336056;0.0002239;86.4018;14.1015;87.9314;272.2138;2.1382E-5;8.0E-7;0;Iridium
14.34336096;0.0002244;86.4019;13.8102;87.8335;272.3118;2.0098E-5;7.6E-7;0;Iridium
14.34336096;0.0002244;86.4019;13.8102;87.8335;272.3118;2.0098E-5;7.6E-7;0;Iridium
14.34336159;0.0002242;86.4019;13.6646;87.8942;272.2511;2.124E-5;7.9E-7;0;Iridium
14.34336213;0.0002244;86.4019;13.4024;87.8173;272.328;2.0814E-5;7.8E-7;0;Iridium
14.34336263;0.0002243;86.4019;13.2568;87.9577;272.1875;2.1246E-5;7.9E-7;0;Iridium
14.34336297;0.000225;86.4019;12.9655;87.7304;272.4149;2.0076E-5;7.6E-7;0;Iridium
14.34336365;0.0002251;86.4019;12.8198;87.8413;272.304;2.2132E-5;8.2E-7;0;Iridium
14.34336439;0.0002252;86.4019;12.5577;87.5964;272.5489;2.3482E-5;8.6E-7;0;Iridium
14.34336454;0.0002251;86.4019;12.5286;87.5909;272.5545;2.395E-5;8.7E-7;0;Iridium
14.34336504;0.0002251;86.4019;12.412;87.6931;272.4523;2.4557E-5;8.9E-7;0;Iridium
14.3433662;0.0002252;86.4019;12.1499;87.5166;272.6288;2.7779E-5;9.8E-7;0;Iridium
14.34336631;0.0002252;86.4019;12.1207;87.5398;272.6055;2.8061E-5;9.9E-7;0;Iridium
14.34336698;0.000225;86.4019;12.0042;87.6186;272.5267;2.9429E-5;1.02E-6;0;Iridium
14.34336733;0.0002249;86.4019;11.9168;87.6536;272.4917;3.0534E-5;1.05E-6;0;Iridium
14.34336836;0.0002253;86.4018;11.5672;87.5285;272.6169;2.835E-5;9.9E-7;0;Iridium
14.34336913;0.000225;86.4018;11.4507;87.5544;272.5909;3.0907E-5;1.07E-6;0;Iridium
14.34336955;0.0002253;86.4017;11.3051;87.4258;272.7196;2.9969E-5;1.04E-6;0;Iridium
14.34337022;0.0002252;86.4017;11.1594;87.4958;272.6496;3.0292E-5;1.05E-6;0;Iridium
14.34337106;0.0002249;86.4017;11.0137;87.3639;272.7814;3.2023E-5;1.1E-6;0;Iridium
14.34337176;0.0002249;86.4016;10.7807;87.2511;272.8942;2.9125E-5;1.02E-6;0;Iridium
14.34337228;0.0002243;86.4016;10.5768;87.2048;272.9404;2.7608E-5;9.7E-7;0;Iridium
14.34337228;0.0002243;86.4016;10.5768;87.2048;272.9404;2.7608E-5;9.7E-7;0;Iridium
14.3433737;0.0002239;86.4016;10.169;87.101;273.0442;2.511E-5;9.0E-7;0;Iridium
14.34337473;0.0002239;86.4015;9.9359;87.0465;273.0987;2.5063E-5;9.0E-7;0;Iridium
14.34337623;0.0002235;86.4015;9.5863;86.925;273.2202;2.5183E-5;9.0E-7;0;Iridium
14.34337636;0.0002234;86.4015;9.5281;86.9088;273.2363;2.3814E-5;8.7E-7;0;Iridium
14.34337798;0.0002236;86.4014;9.1202;87.0834;273.0618;2.3988E-5;8.7E-7;0;Iridium
14.34337944;0.0002233;86.4014;8.7416;87.2961;272.8491;2.4221E-5;8.8E-7;0;Iridium
14.34337952;0.0002236;86.4014;8.6833;87.3038;272.8414;2.3433E-5;8.6E-7;0;Iridium
14.34338004;0.0002234;86.4013;8.5085;87.2617;272.8835;2.3387E-5;8.5E-7;0;Iridium
14.34338093;0.0002241;86.4013;8.2754;87.106;273.0393;2.3461E-5;8.6E-7;0;Iridium
14.34338107;0.0002241;86.4013;8.0715;86.9199;273.2253;2.1662E-5;8.1E-7;0;Iridium
14.34338107;0.0002241;86.4013;8.0715;86.9199;273.2253;2.1662E-5;8.1E-7;0;Iridium
14.3433816;0.000224;86.4013;7.8676;86.8883;273.2569;2.1156E-5;7.9E-7;0;Iridium
14.34338272;0.0002236;86.4012;7.4596;86.8267;273.3185;2.195E-5;8.1E-7;0;Iridium
14.34338442;0.0002236;86.4011;7.0225;87.0238;273.1214;2.5192E-5;9.1E-7;0;Iridium
14.34338506;0.0002232;86.401;6.8476;86.8598;273.2854;2.6416E-5;9.4E-7;0;Iridium
14.34338584;0.0002232;86.4009;6.6145;86.7718;273.3733;2.6656E-5;9.5E-7;0;Iridium
14.34338645;0.0002227;86.4009;6.4105;86.5601;273.585;2.7087E-5;9.6E-7;0;Iridium
14.34338718;0.0002224;86.4008;6.2648;86.3931;273.7519;2.8768E-5;1.01E-6;0;Iridium
14.34338729;0.0002224;86.4008;6.2066;86.403;273.742;2.7733E-5;9.8E-7;0;Iridium
14.34338879;0.000222;86.4007;5.8277;86.3302;273.8147;2.8662E-5;1.0E-6;0;Iridium
14.34338846;0.0002235;86.4007;5.7695;87.1368;273.0084;2.6352E-5;9.4E-7;0;Iridium
14.34338982;0.0002238;86.4006;5.3906;87.1443;273.0009;2.5618E-5;9.2E-7;0;Iridium
14.34338997;0.0002238;86.4006;5.3615;87.1651;272.9801;2.5828E-5;9.2E-7;0;Iridium
14.34339079;0.0002232;86.4004;5.0118;86.9736;273.1715;2.3365E-5;8.5E-7;0;Iridium
14.34339079;0.0002232;86.4004;5.0118;86.9736;273.1715;2.3365E-5;8.5E-7;0;Iridium
14.34339098;0.0002232;86.4004;4.9535;86.8877;273.2574;2.2562E-5;8.3E-7;0;Iridium
14.34339154;0.0002223;86.4004;4.7495;86.5116;273.6334;2.1785E-5;8.1E-7;0;Iridium
14.34339305;0.0002217;86.4002;4.3416;86.4286;273.7163;2.1411E-5;8.0E-7;0;Iridium
14.34339305;0.0002217;86.4002;4.3416;86.4286;273.7163;2.1411E-5;8.0E-7;0;Iridium
14.34339384;0.0002217;86.4002;4.1084;86.4718;273.6732;2.0539E-5;7.7E-7;0;Iridium
14.34339497;0.0002217;86.4001;3.7005;86.2927;273.8522;1.9157E-5;7.4E-7;0;Iridium
14.34339497;0.0002217;86.4001;3.7005;86.2927;273.8522;1.9157E-5;7.4E-7;0;Iridium
14.343396;0.0002214;86.4;3.3508;86.2206;273.9243;1.9642E-5;7.5E-7;0;Iridium
14.3433961;0.0002214;86.4;3.2925;86.2189;273.926;1.8696E-5;7.2E-7;0;Iridium
14.34339671;0.0002209;86.4;3.0884;86.1165;274.0283;1.9362E-5;7.4E-7;0;Iridium
14.34339725;0.0002211;86.3999;2.8844;86.1719;273.9729;1.9053E-5;7.3E-7;0;Iridium
14.34339785;0.0002207;86.3998;2.6512;86.0095;274.1354;1.9886E-5;7.6E-7;0;Iridium
14.34339829;0.0002207;86.3998;2.4763;85.9286;274.2162;1.9582E-5;7.5E-7;0;Iridium
14.34339835;0.0002207;86.3998;2.418;85.8217;274.3231;1.9643E-5;7.5E-7;0;Iridium
14.34339933;0.0002201;86.3996;2.0974;85.5394;274.6053;2.1153E-5;7.9E-7;0;Iridium
14.34339949;0.0002201;86.3996;2.0391;85.5363;274.6085;2.0688E-5;7.8E-7;0;Iridium
14.34340055;0.0002195;86.3995;1.6892;85.4106;274.7341;2.2931E-5;8.4E-7;0;Iridium
14.3434007;0.0002195;86.3995;1.6309;85.4751;274.6695;2.2432E-5;8.3E-7;0;Iridium
14.34340206;0.000219;86.3994;1.3977;85.5588;274.5858;2.6629E-5;9.5E-7;0;Iridium
14.34340249;0.0002189;86.3993;1.2519;85.6139;274.5307;2.6865E-5;9.5E-7;0;Iridium
14.34340265;0.0002191;86.3993;1.1936;85.7015;274.4431;2.6774E-5;9.5E-7;0;Iridium
14.34340324;0.0002185;86.3992;1.0187;85.7191;274.4254;2.7614E-5;9.7E-7;0;Iridium
14.34340389;0.0002187;86.3991;0.8437;85.7271;274.4175;2.8405E-5;1.0E-6;0;Iridium
14.34340401;0.000219;86.3991;0.7854;85.8;274.3446;2.773E-5;9.8E-7;0;Iridium
14.3434049;0.0002183;86.3989;0.4355;85.5301;274.6144;2.7308E-5;9.6E-7;0;Iridium
14.3434049;0.0002183;86.3989;0.4355;85.5301;274.6144;2.7308E-5;9.6E-7;0;Iridium
14.3434049;0.0002183;86.3989;0.4355;85.5301;274.6144;2.7308E-5;9.6E-7;0;Iridium
14.34340488;0.0002184;86.3989;0.3772;85.6238;274.5207;2.568E-5;9.2E-7;0;Iridium
14.34340575;0.000218;86.3987;359.969;85.7454;274.3991;2.2974E-5;8.4E-7;0;Iridium
14.34340574;0.000218;86.3987;359.9398;85.7735;274.3709;2.2661E-5;8.3E-7;0;Iridium
14.34340745;0.000218;86.3986;359.5899;85.869;274.2755;2.4613E-5;8.9E-7;0;Iridium
14.34340761;0.000218;86.3986;359.5316;85.8708;274.2737;2.3833E-5;8.7E-7;0;Iridium
14.34340889;0.0002176;86.3984;359.1817;85.6519;274.4925;2.3634E-5;8.6E-7;0;Iridium
14.34340917;0.0002176;86.3984;359.1234;85.6065;274.5379;2.3226E-5;8.5E-7;0;Iridium
14.34341047;0.0002171;86.3982;358.7443;85.5336;274.6108;2.2355E-5;8.3E-7;0;Iridium
